[
    {
        "Altitude(m)": 607910.9956467025,
        "Argument of Periapsis(deg)": 0.0,
        "Eccentricity": 0.0,
        "Inclination(deg)": 60.0,
        "Latitude(deg)": -14.292868724982066,
        "Longitude(deg)": 43.44267345883175,
        "Mean Anomaly(deg)": -163.63640000000007,
        "RAAN(deg)": 315.0,
        "Satellite Name": "Test1 1398",
        "Satellite Number": 1398,
        "Semi-Major Axis(m)": 6980739.136638005,
        "Time(s)": 0
    },
    {
        "Altitude(m)": 608060.2286902261,
        "Argument of Periapsis(deg)": 0.00010418945913296404,
        "Eccentricity": 0.0,
        "Inclination(deg)": 60.0,
        "Latitude(deg)": -14.826529613280922,
        "Longitude(deg)": 43.73128381135418,
        "Mean Anomaly(deg)": -163.01629385453822,
        "RAAN(deg)": 314.99957995086027,
        "Satellite Name": "Test1 1398",
        "Satellite Number": 1398,
        "Semi-Major Axis(m)": 6980739.136638005,
        "Time(s)": 10
    },
    {
        "Altitude(m)": 608211.8919387707,
        "Argument of Periapsis(deg)": 0.0002083789182659281,
        "Eccentricity": 0.0,
        "Inclination(deg)": 60.0,
        "Latitude(deg)": -15.3596742814957,
        "Longitude(deg)": 44.02150294943308,
        "Mean Anomaly(deg)": -162.39618770907637,
        "RAAN(deg)": 314.9991599017205,
        "Satellite Name": "Test1 1398",
        "Satellite Number": 1398,
        "Semi-Major Axis(m)": 6980739.136638005,
        "Time(s)": 20
    },
    {
        "Altitude(m)": 608365.9373111529,
        "Argument of Periapsis(deg)": 0.00031256837739889213,
        "Eccentricity": 0.0,
        "Inclination(deg)": 60.0,
        "Latitude(deg)": -15.892281520408229,
        "Longitude(deg)": 44.313398340471416,
        "Mean Anomaly(deg)": -161.77608156361455,
        "RAAN(deg)": 314.9987398525808,
        "Satellite Name": "Test1 1398",
        "Satellite Number": 1398,
        "Semi-Major Axis(m)": 6980739.136638005,
        "Time(s)": 30
    },
    {
        "Altitude(m)": 608522.3155286565,
        "Argument of Periapsis(deg)": 0.0004167578365318562,
        "Eccentricity": 0.0,
        "Inclination(deg)": 60.0,
        "Latitude(deg)": -16.42432978854041,
        "Longitude(deg)": 44.60703897087391,
        "Mean Anomaly(deg)": -161.1559754181527,
        "RAAN(deg)": 314.99831980344106,
        "Satellite Name": "Test1 1398",
        "Satellite Number": 1398,
        "Semi-Major Axis(m)": 6980739.136638005,
        "Time(s)": 40
    },
    {
        "Altitude(m)": 608680.9761363354,
        "Argument of Periapsis(deg)": 0.0005209472956648203,
        "Eccentricity": 0.0,
        "Inclination(deg)": 60.0,
        "Latitude(deg)": -16.955797196134977,
        "Longitude(deg)": 44.90249438137615,
        "Mean Anomaly(deg)": -160.53586927269086,
        "RAAN(deg)": 314.9978997543013,
        "Satellite Name": "Test1 1398",
        "Satellite Number": 1398,
        "Semi-Major Axis(m)": 6980739.136638005,
        "Time(s)": 50
    },
    {
        "Altitude(m)": 608841.8675248777,
        "Argument of Periapsis(deg)": 0.0006251367547977843,
        "Eccentricity": 0.0,
        "Inclination(deg)": 60.0,
        "Latitude(deg)": -17.486661488653734,
        "Longitude(deg)": 45.19983521608405,
        "Mean Anomaly(deg)": -159.915763127229,
        "RAAN(deg)": 314.99747970516154,
        "Satellite Name": "Test1 1398",
        "Satellite Number": 1398,
        "Semi-Major Axis(m)": 6980739.136638005,
        "Time(s)": 60
    },
    {
        "Altitude(m)": 609004.9369530369,
        "Argument of Periapsis(deg)": 0.0007293262139307483,
        "Eccentricity": 0.0,
        "Inclination(deg)": 60.0,
        "Latitude(deg)": -18.01690002977219,
        "Longitude(deg)": 45.499133772376354,
        "Mean Anomaly(deg)": -159.2956569817672,
        "RAAN(deg)": 314.9970596560218,
        "Satellite Name": "Test1 1398",
        "Satellite Number": 1398,
        "Semi-Major Axis(m)": 6980739.136638005,
        "Time(s)": 70
    },
    {
        "Altitude(m)": 609170.1305705721,
        "Argument of Periapsis(deg)": 0.0008335156730637124,
        "Eccentricity": 0.0,
        "Inclination(deg)": 60.0,
        "Latitude(deg)": -18.54648978384904,
        "Longitude(deg)": 45.80046303882015,
        "Mean Anomaly(deg)": -158.67555083630535,
        "RAAN(deg)": 314.99663960688207,
        "Satellite Name": "Test1 1398",
        "Satellite Number": 1398,
        "Semi-Major Axis(m)": 6980739.136638005,
        "Time(s)": 80
    },
    {
        "Altitude(m)": 609337.393441755,
        "Argument of Periapsis(deg)": 0.0009377051321966765,
        "Eccentricity": 0.0,
        "Inclination(deg)": 60.0,
        "Latitude(deg)": -19.07540729784131,
        "Longitude(deg)": 46.10389724686641,
        "Mean Anomaly(deg)": -158.0554446908435,
        "RAAN(deg)": 314.99621955774234,
        "Satellite Name": "Test1 1398",
        "Satellite Number": 1398,
        "Semi-Major Axis(m)": 6980739.136638005,
        "Time(s)": 90
    },
    {
        "Altitude(m)": 609506.669569361,
        "Argument of Periapsis(deg)": 0.0010418945913296407,
        "Eccentricity": 0.0,
        "Inclination(deg)": 60.0,
        "Latitude(deg)": -19.603628682643166,
        "Longitude(deg)": 46.40951242347466,
        "Mean Anomaly(deg)": -157.43533854538174,
        "RAAN(deg)": 314.99579950860254,
        "Satellite Name": "Test1 1398",
        "Satellite Number": 1398,
        "Semi-Major Axis(m)": 6980739.136638005,
        "Time(s)": 100
    },
    {
        "Altitude(m)": 609677.9019191852,
        "Argument of Periapsis(deg)": 0.0011460840504626045,
        "Eccentricity": 0.0,
        "Inclination(deg)": 60.0,
        "Latitude(deg)": -20.131129593823648,
        "Longitude(deg)": 46.71738543181167,
        "Mean Anomaly(deg)": -156.81523239991984,
        "RAAN(deg)": 314.99537945946287,
        "Satellite Name": "Test1 1398",
        "Satellite Number": 1398,
        "Semi-Major Axis(m)": 6980739.136638005,
        "Time(s)": 110
    },
    {
        "Altitude(m)": 609851.032445031,
        "Argument of Periapsis(deg)": 0.0012502735095955685,
        "Eccentricity": 0.0,
        "Inclination(deg)": 60.0,
        "Latitude(deg)": -20.657885211731948,
        "Longitude(deg)": 47.02759452578661,
        "Mean Anomaly(deg)": -156.1951262544581,
        "RAAN(deg)": 314.99495941032313,
        "Satellite Name": "Test1 1398",
        "Satellite Number": 1398,
        "Semi-Major Axis(m)": 6980739.136638005,
        "Time(s)": 120
    },
    {
        "Altitude(m)": 610026.0021141948,
        "Argument of Periapsis(deg)": 0.0013544629687285324,
        "Eccentricity": 0.0,
        "Inclination(deg)": 60.0,
        "Latitude(deg)": -21.18387022094683,
        "Longitude(deg)": 47.34021990556575,
        "Mean Anomaly(deg)": -155.57502010899623,
        "RAAN(deg)": 314.99453936118334,
        "Satellite Name": "Test1 1398",
        "Satellite Number": 1398,
        "Semi-Major Axis(m)": 6980739.136638005,
        "Time(s)": 130
    },
    {
        "Altitude(m)": 610202.750933407,
        "Argument of Periapsis(deg)": 0.0014586524278614966,
        "Eccentricity": 0.0,
        "Inclination(deg)": 60.0,
        "Latitude(deg)": -21.70905878904126,
        "Longitude(deg)": 47.655342761204444,
        "Mean Anomaly(deg)": -154.95491396353438,
        "RAAN(deg)": 314.9941193120436,
        "Satellite Name": "Test1 1398",
        "Satellite Number": 1398,
        "Semi-Major Axis(m)": 6980739.136638005,
        "Time(s)": 140
    },
    {
        "Altitude(m)": 610381.2179752055,
        "Argument of Periapsis(deg)": 0.0015628418869944607,
        "Eccentricity": 0.0,
        "Inclination(deg)": 60.0,
        "Latitude(deg)": -22.233424544631045,
        "Longitude(deg)": 47.97304583015252,
        "Mean Anomaly(deg)": -154.3348078180726,
        "RAAN(deg)": 314.9936992629039,
        "Satellite Name": "Test1 1398",
        "Satellite Number": 1398,
        "Semi-Major Axis(m)": 6980739.136638005,
        "Time(s)": 150
    },
    {
        "Altitude(m)": 610561.3414047832,
        "Argument of Periapsis(deg)": 0.0016670313461274247,
        "Eccentricity": 0.0,
        "Inclination(deg)": 60.0,
        "Latitude(deg)": -22.756940554678607,
        "Longitude(deg)": 48.29341395576536,
        "Mean Anomaly(deg)": -153.71470167261074,
        "RAAN(deg)": 314.99327921376414,
        "Satellite Name": "Test1 1398",
        "Satellite Number": 1398,
        "Semi-Major Axis(m)": 6980739.136638005,
        "Time(s)": 160
    },
    {
        "Altitude(m)": 610743.0585072248,
        "Argument of Periapsis(deg)": 0.0017712208052603888,
        "Eccentricity": 0.0,
        "Inclination(deg)": 60.0,
        "Latitude(deg)": -23.2795793010231,
        "Longitude(deg)": 48.61653313395129,
        "Mean Anomaly(deg)": -153.09459552714887,
        "RAAN(deg)": 314.9928591646244,
        "Satellite Name": "Test1 1398",
        "Satellite Number": 1398,
        "Semi-Major Axis(m)": 6980739.136638005,
        "Time(s)": 170
    },
    {
        "Altitude(m)": 610926.3057151639,
        "Argument of Periapsis(deg)": 0.001875410264393353,
        "Eccentricity": 0.0,
        "Inclination(deg)": 60.0,
        "Latitude(deg)": -23.801312656101643,
        "Longitude(deg)": 48.9424910736985,
        "Mean Anomaly(deg)": -152.47448938168714,
        "RAAN(deg)": 314.9924391154846,
        "Satellite Name": "Test1 1398",
        "Satellite Number": 1398,
        "Semi-Major Axis(m)": 6980739.136638005,
        "Time(s)": 180
    },
    {
        "Altitude(m)": 611111.0186368485,
        "Argument of Periapsis(deg)": 0.0019795997235263173,
        "Eccentricity": 0.0,
        "Inclination(deg)": 60.0,
        "Latitude(deg)": -24.322111857830954,
        "Longitude(deg)": 49.271377758602846,
        "Mean Anomaly(deg)": -151.8543832362252,
        "RAAN(deg)": 314.99201906634494,
        "Satellite Name": "Test1 1398",
        "Satellite Number": 1398,
        "Semi-Major Axis(m)": 6980739.136638005,
        "Time(s)": 190
    }
]